STARLINK-11550 [DTC]    
1 63052U 25035A   26085.79601784  .00213653  00000+0  16255-2 0  9994
2 63052  43.0002 272.0188 0001703 287.8719  72.1963 15.70849409 63912
STARLINK-11563 [DTC]    
1 63053U 25035B   26085.80132748  .00241460  00000+0  18300-2 0  9996
2 63053  43.0008 272.0611 0002219 283.7835  76.2786 15.70853817 63801
STARLINK-11347 [DTC]    
1 63054U 25035C   26084.81585386  .00265327  00000+0  20010-2 0  9996
2 63054  42.9992 278.4472 0000228 221.9611 138.1239 15.70897402 63754
STARLINK-11558 [DTC]    
1 63055U 25035D   26085.84368102  .00251109  00000+0  19014-2 0  9991
2 63055  42.9955 271.5056 0000612  70.8311 289.2623 15.70845197 63817
STARLINK-11392 [DTC]    
1 63056U 25035E   26085.63180462  .00229113  00000+0  17327-2 0  9995
2 63056  43.0027 273.3785 0001804 274.4594  85.6067 15.70943457 63883
STARLINK-11406 [DTC]    
1 63057U 25035F   26085.87021647  .00201746  00000+0  15348-2 0  9994
2 63057  42.9989 271.7162 0001980 283.9901  76.0747 15.70886935 63800
STARLINK-11418 [DTC]    
1 63058U 25035G   26085.90207391  .00141674  00000+0  10870-2 0  9999
2 63058  42.9985 271.9759 0001541 252.0580 108.0120 15.70881227 63804
STARLINK-11509 [DTC]    
1 63059U 25035H   26085.83336806 -.00020269  00000+0 -15491-3 0  9999
2 63059  43.0000 272.2405 0001578 279.0857 112.0868 15.70830004  6025
STARLINK-11403 [DTC]    
1 63060U 25035J   26085.81724216  .00197941  00000+0  15048-2 0  9992
2 63060  43.0051 272.1840 0005442 260.1242  99.9011 15.70903765 63917
STARLINK-11409 [DTC]    
1 63061U 25035K   26085.82347454  .00299511  00000+0  22506-2 0  9992
2 63061  43.0007 272.2337 0002330 281.6505  78.4101 15.70881686 63913
STARLINK-11412 [DTC]    
1 63062U 25035L   26085.55760705  .00276902  00000+0  20756-2 0  9995
2 63062  42.9986 273.6736 0001106 230.1253 129.9517 15.71009011 63878
STARLINK-11399 [DTC]    
1 63063U 25035M   26084.90054294  .00111575  00000+0  86042-3 0  9998
2 63063  42.9997 277.3343 0001569 265.7306  94.3383 15.70867089 63773
STARLINK-11408 [DTC]    
1 63064U 25035N   26085.78539830  .00251489  00000+0  19049-2 0  9991
2 63064  43.0003 271.9247 0001618 263.7540  96.3143 15.70837941 63916
STARLINK-33635          
1 63065U 25035P   26085.90968679  .00040603  00000+0  14758-2 0  9999
2 63065  43.0009  49.8018 0001225 249.5443 110.5277 15.27604921 62366
STARLINK-33622          
1 63066U 25035Q   26085.30321623  .00021200  00000+0  77640-3 0  9998
2 63066  43.0046  52.9832 0002330 235.7838 124.2793 15.27634687 62277
STARLINK-33628          
1 63067U 25035R   26085.40458712  .00013488  00000+0  49829-3 0  9997
2 63067  43.0004  52.8920 0001008 255.4683 104.6057 15.27610930 62288
