[{"OBJECT_NAME":"STARLINK-11550 [DTC]","OBJECT_ID":"2025-035A","EPOCH":"2026-03-26T19:06:15.941376","MEAN_MOTION":15.70849409,"ECCENTRICITY":0.0001703,"INCLINATION":43.0002,"RA_OF_ASC_NODE":272.0188,"ARG_OF_PERICENTER":287.8719,"MEAN_ANOMALY":72.1963,"EPHEMERIS_TYPE":0,"CLASSIFICATION_TYPE":"U","NORAD_CAT_ID":63052,"ELEMENT_SET_NO":999,"REV_AT_EPOCH":6391,"BSTAR":0.0016255,"MEAN_MOTION_DOT":0.00213653,"MEAN_MOTION_DDOT":0},{"OBJECT_NAME":"STARLINK-11563 [DTC]","OBJECT_ID":"2025-035B","EPOCH":"2026-03-26T19:13:54.694272","MEAN_MOTION":15.70853817,"ECCENTRICITY":0.0002219,"INCLINATION":43.0008,"RA_OF_ASC_NODE":272.0611,"ARG_OF_PERICENTER":283.7835,"MEAN_ANOMALY":76.2786,"EPHEMERIS_TYPE":0,"CLASSIFICATION_TYPE":"U","NORAD_CAT_ID":63053,"ELEMENT_SET_NO":999,"REV_AT_EPOCH":6380,"BSTAR":0.00183,"MEAN_MOTION_DOT":0.0024146,"MEAN_MOTION_DDOT":0},{"OBJECT_NAME":"STARLINK-11347 [DTC]","OBJECT_ID":"2025-035C","EPOCH":"2026-03-25T19:34:49.773504","MEAN_MOTION":15.70897402,"ECCENTRICITY":2.28e-5,"INCLINATION":42.9992,"RA_OF_ASC_NODE":278.4472,"ARG_OF_PERICENTER":221.9611,"MEAN_ANOMALY":138.1239,"EPHEMERIS_TYPE":0,"CLASSIFICATION_TYPE":"U","NORAD_CAT_ID":63054,"ELEMENT_SET_NO":999,"REV_AT_EPOCH":6375,"BSTAR":0.0020010044,"MEAN_MOTION_DOT":0.00265327,"MEAN_MOTION_DDOT":0},{"OBJECT_NAME":"STARLINK-11558 [DTC]","OBJECT_ID":"2025-035D","EPOCH":"2026-03-26T20:14:54.040128","MEAN_MOTION":15.70845197,"ECCENTRICITY":6.12e-5,"INCLINATION":42.9955,"RA_OF_ASC_NODE":271.5056,"ARG_OF_PERICENTER":70.8311,"MEAN_ANOMALY":289.2623,"EPHEMERIS_TYPE":0,"CLASSIFICATION_TYPE":"U","NORAD_CAT_ID":63055,"ELEMENT_SET_NO":999,"REV_AT_EPOCH":6381,"BSTAR":0.0019014,"MEAN_MOTION_DOT":0.00251109,"MEAN_MOTION_DDOT":0},{"OBJECT_NAME":"STARLINK-11392 [DTC]","OBJECT_ID":"2025-035E","EPOCH":"2026-03-26T15:09:47.919168","MEAN_MOTION":15.70943457,"ECCENTRICITY":0.0001804,"INCLINATION":43.0027,"RA_OF_ASC_NODE":273.3785,"ARG_OF_PERICENTER":274.4594,"MEAN_ANOMALY":85.6067,"EPHEMERIS_TYPE":0,"CLASSIFICATION_TYPE":"U","NORAD_CAT_ID":63056,"ELEMENT_SET_NO":999,"REV_AT_EPOCH":6388,"BSTAR":0.0017327,"MEAN_MOTION_DOT":0.00229113,"MEAN_MOTION_DDOT":0},{"OBJECT_NAME":"STARLINK-11406 [DTC]","OBJECT_ID":"2025-035F","EPOCH":"2026-03-26T20:53:06.703008","MEAN_MOTION":15.70886935,"ECCENTRICITY":0.000198,"INCLINATION":42.9989,"RA_OF_ASC_NODE":271.7162,"ARG_OF_PERICENTER":283.9901,"MEAN_ANOMALY":76.0747,"EPHEMERIS_TYPE":0,"CLASSIFICATION_TYPE":"U","NORAD_CAT_ID":63057,"ELEMENT_SET_NO":999,"REV_AT_EPOCH":6380,"BSTAR":0.0015348,"MEAN_MOTION_DOT":0.00201746,"MEAN_MOTION_DDOT":0},{"OBJECT_NAME":"STARLINK-11418 [DTC]","OBJECT_ID":"2025-035G","EPOCH":"2026-03-26T21:38:59.185824","MEAN_MOTION":15.70881227,"ECCENTRICITY":0.0001541,"INCLINATION":42.9985,"RA_OF_ASC_NODE":271.9759,"ARG_OF_PERICENTER":252.058,"MEAN_ANOMALY":108.012,"EPHEMERIS_TYPE":0,"CLASSIFICATION_TYPE":"U","NORAD_CAT_ID":63058,"ELEMENT_SET_NO":999,"REV_AT_EPOCH":6380,"BSTAR":0.001087,"MEAN_MOTION_DOT":0.00141674,"MEAN_MOTION_DDOT":0},{"OBJECT_NAME":"STARLINK-11509 [DTC]","OBJECT_ID":"2025-035H","EPOCH":"2026-03-26T20:00:03.000384","MEAN_MOTION":15.70830004,"ECCENTRICITY":0.0001578,"INCLINATION":43,"RA_OF_ASC_NODE":272.2405,"ARG_OF_PERICENTER":279.0857,"MEAN_ANOMALY":112.0868,"EPHEMERIS_TYPE":0,"CLASSIFICATION_TYPE":"U","NORAD_CAT_ID":63059,"ELEMENT_SET_NO":999,"REV_AT_EPOCH":602,"BSTAR":-0.00015491,"MEAN_MOTION_DOT":-0.00020269,"MEAN_MOTION_DDOT":0},{"OBJECT_NAME":"STARLINK-11403 [DTC]","OBJECT_ID":"2025-035J","EPOCH":"2026-03-26T19:36:49.722624","MEAN_MOTION":15.70903765,"ECCENTRICITY":0.0005442,"INCLINATION":43.0051,"RA_OF_ASC_NODE":272.184,"ARG_OF_PERICENTER":260.1242,"MEAN_ANOMALY":99.9011,"EPHEMERIS_TYPE":0,"CLASSIFICATION_TYPE":"U","NORAD_CAT_ID":63060,"ELEMENT_SET_NO":999,"REV_AT_EPOCH":6391,"BSTAR":0.0015048,"MEAN_MOTION_DOT":0.00197941,"MEAN_MOTION_DDOT":0},{"OBJECT_NAME":"STARLINK-11409 [DTC]","OBJECT_ID":"2025-035K","EPOCH":"2026-03-26T19:45:48.200256","MEAN_MOTION":15.70881686,"ECCENTRICITY":0.000233,"INCLINATION":43.0007,"RA_OF_ASC_NODE":272.2337,"ARG_OF_PERICENTER":281.6505,"MEAN_ANOMALY":78.4101,"EPHEMERIS_TYPE":0,"CLASSIFICATION_TYPE":"U","NORAD_CAT_ID":63061,"ELEMENT_SET_NO":999,"REV_AT_EPOCH":6391,"BSTAR":0.0022506,"MEAN_MOTION_DOT":0.00299511,"MEAN_MOTION_DDOT":0},{"OBJECT_NAME":"STARLINK-11412 [DTC]","OBJECT_ID":"2025-035L","EPOCH":"2026-03-26T13:22:57.249120","MEAN_MOTION":15.71009011,"ECCENTRICITY":0.0001106,"INCLINATION":42.9986,"RA_OF_ASC_NODE":273.6736,"ARG_OF_PERICENTER":230.1253,"MEAN_ANOMALY":129.9517,"EPHEMERIS_TYPE":0,"CLASSIFICATION_TYPE":"U","NORAD_CAT_ID":63062,"ELEMENT_SET_NO":999,"REV_AT_EPOCH":6387,"BSTAR":0.0020756,"MEAN_MOTION_DOT":0.00276902,"MEAN_MOTION_DDOT":0},{"OBJECT_NAME":"STARLINK-11399 [DTC]","OBJECT_ID":"2025-035M","EPOCH":"2026-03-25T21:36:46.910016","MEAN_MOTION":15.70867089,"ECCENTRICITY":0.0001569,"INCLINATION":42.9997,"RA_OF_ASC_NODE":277.3343,"ARG_OF_PERICENTER":265.7306,"MEAN_ANOMALY":94.3383,"EPHEMERIS_TYPE":0,"CLASSIFICATION_TYPE":"U","NORAD_CAT_ID":63063,"ELEMENT_SET_NO":999,"REV_AT_EPOCH":6377,"BSTAR":0.00086042,"MEAN_MOTION_DOT":0.00111575,"MEAN_MOTION_DDOT":0},{"OBJECT_NAME":"STARLINK-11408 [DTC]","OBJECT_ID":"2025-035N","EPOCH":"2026-03-26T18:50:58.413120","MEAN_MOTION":15.70837941,"ECCENTRICITY":0.0001618,"INCLINATION":43.0003,"RA_OF_ASC_NODE":271.9247,"ARG_OF_PERICENTER":263.754,"MEAN_ANOMALY":96.3143,"EPHEMERIS_TYPE":0,"CLASSIFICATION_TYPE":"U","NORAD_CAT_ID":63064,"ELEMENT_SET_NO":999,"REV_AT_EPOCH":6391,"BSTAR":0.0019049,"MEAN_MOTION_DOT":0.00251489,"MEAN_MOTION_DDOT":0},{"OBJECT_NAME":"STARLINK-33635","OBJECT_ID":"2025-035P","EPOCH":"2026-03-26T21:49:56.938656","MEAN_MOTION":15.27604921,"ECCENTRICITY":0.0001225,"INCLINATION":43.0009,"RA_OF_ASC_NODE":49.8018,"ARG_OF_PERICENTER":249.5443,"MEAN_ANOMALY":110.5277,"EPHEMERIS_TYPE":0,"CLASSIFICATION_TYPE":"U","NORAD_CAT_ID":63065,"ELEMENT_SET_NO":999,"REV_AT_EPOCH":6236,"BSTAR":0.0014758,"MEAN_MOTION_DOT":0.00040603,"MEAN_MOTION_DDOT":0},{"OBJECT_NAME":"STARLINK-33622","OBJECT_ID":"2025-035Q","EPOCH":"2026-03-26T07:16:37.882272","MEAN_MOTION":15.27634687,"ECCENTRICITY":0.000233,"INCLINATION":43.0046,"RA_OF_ASC_NODE":52.9832,"ARG_OF_PERICENTER":235.7838,"MEAN_ANOMALY":124.2793,"EPHEMERIS_TYPE":0,"CLASSIFICATION_TYPE":"U","NORAD_CAT_ID":63066,"ELEMENT_SET_NO":999,"REV_AT_EPOCH":6227,"BSTAR":0.0007764,"MEAN_MOTION_DOT":0.000212,"MEAN_MOTION_DDOT":0},{"OBJECT_NAME":"STARLINK-33628","OBJECT_ID":"2025-035R","EPOCH":"2026-03-26T09:42:36.327168","MEAN_MOTION":15.2761093,"ECCENTRICITY":0.0001008,"INCLINATION":43.0004,"RA_OF_ASC_NODE":52.892,"ARG_OF_PERICENTER":255.4683,"MEAN_ANOMALY":104.6057,"EPHEMERIS_TYPE":0,"CLASSIFICATION_TYPE":"U","NORAD_CAT_ID":63067,"ELEMENT_SET_NO":999,"REV_AT_EPOCH":6228,"BSTAR":0.00049829,"MEAN_MOTION_DOT":0.00013488,"MEAN_MOTION_DDOT":0}]
